1 20253U 89077A   26118.45855764 -.00000375  00000-0  00000+0 0  9990
2 20253  12.4357 351.4641 0006771  18.4424 137.1791  1.00279746260063
1 20776U 90079A   26116.78581043  .00000114  00000-0  00000-0 0  9995
2 20776  13.3569 350.1687 0002682  32.4888 148.3564  1.00269928130374
1 22787U 93056A   26119.85081108  .00000121  00000-0  00000-0 0  9993
2 22787  11.8777   3.8193 0009090 354.0867 194.9459  1.00266031118060
1 23467U 95003A   26120.51016809 -.00000022  00000-0  00000-0 0  9995
2 23467   9.7043  13.3896 0003372  23.5665 177.4695  1.00273912114470
1 23967U 96042A   26119.05378421 -.00000268  00000-0  00000-0 0  9994
2 23967  11.0730  17.3479 0008896 106.1326  76.9827  1.00230130108998
1 25544U 98067A   26120.52250176  .00006189  00000-0  12023-3 0  9994
2 25544  51.6315 176.0292 0007158   7.8188 352.2911 15.49033593564362
1 25967U 99063A   26119.98331314 -.00000188  00000-0  00000-0 0  9995
2 25967   9.8518  27.4599 0003348 339.3866 182.3401  1.00271889 96868
1 27168U 02001A   26119.92023137  .00000022  00000-0  00000+0 0  9996
2 27168  11.1237  22.2011 0100035   6.7505 179.1306  1.00270055 32474
1 27607U 02058C   26120.61380811  .00001265  00000-0  16633-3 0  9992
2 27607  64.5517 276.1629 0075618 271.1171  88.1272 14.82940590257400
1 28117U 03057A   26118.88716837 -.00000106  00000-0  00000-0 0  9998
2 28117   8.9377  34.0693 0002670 349.0324 228.5618  1.00272063 81956
1 28899U 05044A   26120.51531803 -.00000258  00000-0  00000-0 0  9992
2 28899   5.0356  43.7596 0002953 357.7883 145.8812  1.00271822 75049
1 30794U 07007B   26120.43448337 -.00000268  00000-0  00000-0 0  9991
2 30794   5.1808  74.3043 0004065 335.6910  60.0471  1.00271602 70228
1 32294U 07056B   26120.56317579  .00000144  00000-0  00000-0 0  9991
2 32294   5.1329  74.0548 0003887 318.1281  54.1432  1.00271003 67725
1 35943U 09054B   26120.57071581  .00000000  00000-0  00000-0 0  9997
2 35943   0.0249  83.2598 0003839 329.4067  74.3103  1.00271643 60839
1 36582U 10021B   26120.27562272  .00000000  00000-0  00000-0 0  9992
2 36582   0.0159 245.1919 0003014 171.7042 273.6957  1.00269607 58476
1 38098U 12011A   26120.57244916 -.00000057  00000-0  00000-0 0  9995
2 38098   0.0149 278.5133 0001916 137.6151  80.5786  1.00275452  6718
1 39034U 12075A   26120.56863581  .00000101  00000-0  00000-0 0  9999
2 39034   0.0729 337.9243 0003788  66.1913  71.8686  1.00273111 48680
1 39215U 13038A   26120.56308912  .00000135  00000-0  00000-0 0  9999
2 39215   2.9928   1.7470 0002546  69.1353  15.2003  1.00270610 43549
1 40296U 14069A   26120.32650723  .00000193  00000-0  00000+0 0  9992
2 40296  63.4452 220.0513 6665611 270.8748  19.4099  2.00585816 84275
1 40931U 15052B   25151.18580175  .00001241  00000-0  78118-4 0  9996
2 40931   6.0006  24.0987 0012733 338.8432  21.1169 14.78805930523159
1 43678U 18084H   26120.61768073  .00002281  00000-0  18741-3 0  9995
2 43678  98.1069 314.7988 0012905 334.2272  25.8306 15.00213077409084
1 43700U 18090A   26120.49191795  .00000147  00000-0  00000-0 0  9990
2 43700   0.0137 266.9736 0001700 165.7205 348.6817  1.00277015 27199
1 43803U 18099AX  26120.44163872  .00018306  00000-0  59148-3 0  9999
2 43803  97.4165 183.1590 0007243  87.0718 273.1353 15.32125843406318
1 44453U 19046A   26118.86779719 -.00000023  00000-0  00000-0 0  9998
2 44453  63.0816  57.1026 7061514 274.7245  14.9157  2.00611417 49352
1 44909U 19096E   26120.62724622  .00000020  00000-0  41717-4 0  9999
2 44909  82.5258  11.3107 0216386 255.5417 102.1587 12.79747949296264
1 45254U 20015A   26120.61085772 -.00000173  00000-0  00000-0 0  9997
2 45254  65.5234 324.0258 6872813 278.7296  14.8292  2.00601980 45334
1 52145U 22030A   26120.11846332  .00000233  00000-0  00000-0 0  9991
2 52145  62.6748 145.9393 6771469 272.9002  17.7327  2.00616580 30062
1 57167U 23091B   26010.59363612  .08733485  25619-5  12458-2 0  9993
2 57167  97.4978  91.1570 0009532 282.8011  77.2220 16.34765267141469
1 59112U 24043Q   26120.38537620  .00040443  00000-0  59507-3 0  9990
2 59112  97.5479 267.9964 0006534  23.0616 337.0930 15.55323705120453
1 67291U 25313AV  26120.20320033  .00015023  00000-0  60321-3 0  9999
2 67291  97.3951 195.9575 0010147 156.6625 203.5076 15.25010223 18672
1 26635U 00080A   21013.46269075 0.00000000  00000-0  00000-0 0    09
2 26635   9.2857  29.8038 0014383 186.3086 173.6859  1.00273100    09
1 34810U 09020A   25358.93258989 0.00000000  00000-0  00000-0 0    06
2 34810   2.7881  81.1408 0004972 246.2147 113.7417  1.00270000    08
1 40614U 15022B   25359.93496764 0.00000000  00000-0  00000-0 0    00
2 40614   0.0160 108.2839 0003453 352.8976   7.0980  1.00270000    04
